STARLINK-11102 [DTC]    
1 60065U 24113G   25270.24797228  .00000052  00000+0  52878-5 0  9996
2 60065  53.1598 276.7138 0001067 103.2079 256.9058 15.69706753 73891
STARLINK-11141 [DTC]    
1 60066U 24113H   25270.24306855 -.00000485  00000+0  85841-6 0  9997
2 60066  53.1585 276.6782 0001328  85.6070 274.5100 15.69703387 73890
STARLINK-11153 [DTC]    
1 60067U 24113J   25270.23826341 -.00001853  00000+0 -10436-4 0  9991
2 60067  53.1584 277.3796 0001229  88.0431 272.0727 15.69711780 73884
STARLINK-11170 [DTC]    
1 60068U 24113K   25270.23334684 -.00011659  00000+0 -91274-4 0  9990
2 60068  53.1579 277.3482 0001325 140.0381 220.0734 15.69770028 73882
STARLINK-11171 [DTC]    
1 60069U 24113L   25270.29212022 -.00000224  00000+0  30084-5 0  9996
2 60069  53.1584 277.0017 0001201  92.2696 267.8459 15.69705733 73895
STARLINK-11186 [DTC]    
1 60070U 24113M   25270.28721269 -.00000243  00000+0  28578-5 0  9991
2 60070  53.1597 276.9676 0001315 105.5680 254.5483 15.69707850 74306
STARLINK-11184 [DTC]    
1 60071U 24113N   25270.28231541  .00000261  00000+0  70193-5 0  9990
2 60071  53.1588 276.9752 0001395  79.3557 280.7618 15.69704266 73893
STARLINK-32032          
1 60077U 24113U   25269.68198498 -.00001280  00000+0 -31122-4 0  9993
2 60077  53.1618  40.6275 0000992  87.0052 273.1062 15.30189347 72126
STARLINK-31441          
1 60091U 24117A   25269.72364602  .00001753  00000+0  71294-4 0  9997
2 60091  53.1609  78.6533 0001140  83.8413 276.2717 15.30195348 71781
STARLINK-32044          
1 60092U 24117B   25269.76891577  .00004005  00000+0  14733-3 0  9995
2 60092  53.1608  78.2218 0000584 100.8593 259.2473 15.30185696 71793
STARLINK-31239          
1 60093U 24117C   25269.75636704  .00000977  00000+0  45130-4 0  9994
2 60093  53.1603  78.8563 0000832  82.4004 277.7091 15.30186378 71784
STARLINK-32007          
1 60094U 24117D   25269.87327611 -.00001367  00000+0 -34034-4 0  9999
2 60094  53.1605  78.1637 0001228  75.8507 284.2631 15.30192866 71801
STARLINK-32028          
1 60095U 24117E   25269.73315045 -.00000451  00000+0 -31201-5 0  9990
2 60095  53.1608  78.7122 0001202  93.8084 266.3054 15.30187083 71784
STARLINK-32016          
1 60096U 24117F   25269.75214206  .00000281  00000+0  21614-4 0  9995
2 60096  53.1609  78.8311 0000991  82.8856 277.2257 15.30198347 71787
STARLINK-32003          
1 60097U 24117G   25269.71945194 -.00002651  00000+0 -77532-4 0  9994
2 60097  53.1604  78.6259 0000805 100.1351 259.9741 15.30157169 71782
STARLINK-32026          
1 60098U 24117H   25269.85954575  .00000442  00000+0  27039-4 0  9994
2 60098  53.1617  78.0775 0001542  64.0329 296.0831 15.30199092 71802
