[{"OBJECT_NAME":"STARLINK-11102 [DTC]","OBJECT_ID":"2024-113G","EPOCH":"2025-09-27T05:57:04.804992","MEAN_MOTION":15.69706753,"ECCENTRICITY":0.00010677,"INCLINATION":53.1598,"RA_OF_ASC_NODE":276.7138,"ARG_OF_PERICENTER":103.2079,"MEAN_ANOMALY":256.9058,"EPHEMERIS_TYPE":0,"CLASSIFICATION_TYPE":"U","NORAD_CAT_ID":60065,"ELEMENT_SET_NO":999,"REV_AT_EPOCH":7389,"BSTAR":5.287845e-6,"MEAN_MOTION_DOT":5.2e-7,"MEAN_MOTION_DDOT":0},{"OBJECT_NAME":"STARLINK-11141 [DTC]","OBJECT_ID":"2024-113H","EPOCH":"2025-09-27T05:50:01.122720","MEAN_MOTION":15.69703387,"ECCENTRICITY":0.00013288,"INCLINATION":53.1585,"RA_OF_ASC_NODE":276.6782,"ARG_OF_PERICENTER":85.607,"MEAN_ANOMALY":274.51,"EPHEMERIS_TYPE":0,"CLASSIFICATION_TYPE":"U","NORAD_CAT_ID":60066,"ELEMENT_SET_NO":999,"REV_AT_EPOCH":7389,"BSTAR":8.58405e-7,"MEAN_MOTION_DOT":-4.85e-6,"MEAN_MOTION_DDOT":0},{"OBJECT_NAME":"STARLINK-11153 [DTC]","OBJECT_ID":"2024-113J","EPOCH":"2025-09-27T05:43:05.958624","MEAN_MOTION":15.6971178,"ECCENTRICITY":0.00012295,"INCLINATION":53.1584,"RA_OF_ASC_NODE":277.3796,"ARG_OF_PERICENTER":88.0431,"MEAN_ANOMALY":272.0727,"EPHEMERIS_TYPE":0,"CLASSIFICATION_TYPE":"U","NORAD_CAT_ID":60067,"ELEMENT_SET_NO":999,"REV_AT_EPOCH":7388,"BSTAR":-1.0436307e-5,"MEAN_MOTION_DOT":-1.853e-5,"MEAN_MOTION_DDOT":0},{"OBJECT_NAME":"STARLINK-11170 [DTC]","OBJECT_ID":"2024-113K","EPOCH":"2025-09-27T05:36:01.166976","MEAN_MOTION":15.69770028,"ECCENTRICITY":0.00013253,"INCLINATION":53.1579,"RA_OF_ASC_NODE":277.3482,"ARG_OF_PERICENTER":140.0381,"MEAN_ANOMALY":220.0734,"EPHEMERIS_TYPE":0,"CLASSIFICATION_TYPE":"U","NORAD_CAT_ID":60068,"ELEMENT_SET_NO":999,"REV_AT_EPOCH":7388,"BSTAR":-9.1273714e-5,"MEAN_MOTION_DOT":-0.00011659,"MEAN_MOTION_DDOT":0},{"OBJECT_NAME":"STARLINK-11171 [DTC]","OBJECT_ID":"2024-113L","EPOCH":"2025-09-27T07:00:39.187008","MEAN_MOTION":15.69705733,"ECCENTRICITY":0.0001201,"INCLINATION":53.1584,"RA_OF_ASC_NODE":277.0017,"ARG_OF_PERICENTER":92.2696,"MEAN_ANOMALY":267.8459,"EPHEMERIS_TYPE":0,"CLASSIFICATION_TYPE":"U","NORAD_CAT_ID":60069,"ELEMENT_SET_NO":999,"REV_AT_EPOCH":7389,"BSTAR":3.008387e-6,"MEAN_MOTION_DOT":-2.24e-6,"MEAN_MOTION_DDOT":0},{"OBJECT_NAME":"STARLINK-11186 [DTC]","OBJECT_ID":"2024-113M","EPOCH":"2025-09-27T06:53:35.176416","MEAN_MOTION":15.6970785,"ECCENTRICITY":0.00013159,"INCLINATION":53.1597,"RA_OF_ASC_NODE":276.9676,"ARG_OF_PERICENTER":105.568,"MEAN_ANOMALY":254.5483,"EPHEMERIS_TYPE":0,"CLASSIFICATION_TYPE":"U","NORAD_CAT_ID":60070,"ELEMENT_SET_NO":999,"REV_AT_EPOCH":7430,"BSTAR":2.857816e-6,"MEAN_MOTION_DOT":-2.43e-6,"MEAN_MOTION_DDOT":0},{"OBJECT_NAME":"STARLINK-11184 [DTC]","OBJECT_ID":"2024-113N","EPOCH":"2025-09-27T06:46:32.051424","MEAN_MOTION":15.69704266,"ECCENTRICITY":0.00013959,"INCLINATION":53.1588,"RA_OF_ASC_NODE":276.9752,"ARG_OF_PERICENTER":79.3557,"MEAN_ANOMALY":280.7618,"EPHEMERIS_TYPE":0,"CLASSIFICATION_TYPE":"U","NORAD_CAT_ID":60071,"ELEMENT_SET_NO":999,"REV_AT_EPOCH":7389,"BSTAR":7.019299e-6,"MEAN_MOTION_DOT":2.61e-6,"MEAN_MOTION_DDOT":0},{"OBJECT_NAME":"STARLINK-32032","OBJECT_ID":"2024-113U","EPOCH":"2025-09-26T16:22:03.502272","MEAN_MOTION":15.30189347,"ECCENTRICITY":9.926e-5,"INCLINATION":53.1618,"RA_OF_ASC_NODE":40.6275,"ARG_OF_PERICENTER":87.0052,"MEAN_ANOMALY":273.1062,"EPHEMERIS_TYPE":0,"CLASSIFICATION_TYPE":"U","NORAD_CAT_ID":60077,"ELEMENT_SET_NO":999,"REV_AT_EPOCH":7212,"BSTAR":-3.1122295e-5,"MEAN_MOTION_DOT":-1.28e-5,"MEAN_MOTION_DDOT":0},{"OBJECT_NAME":"STARLINK-31441","OBJECT_ID":"2024-117A","EPOCH":"2025-09-26T17:22:03.016128","MEAN_MOTION":15.30195348,"ECCENTRICITY":0.00011404,"INCLINATION":53.1609,"RA_OF_ASC_NODE":78.6533,"ARG_OF_PERICENTER":83.8413,"MEAN_ANOMALY":276.2717,"EPHEMERIS_TYPE":0,"CLASSIFICATION_TYPE":"U","NORAD_CAT_ID":60091,"ELEMENT_SET_NO":999,"REV_AT_EPOCH":7178,"BSTAR":7.1294265e-5,"MEAN_MOTION_DOT":1.753e-5,"MEAN_MOTION_DDOT":0},{"OBJECT_NAME":"STARLINK-32044","OBJECT_ID":"2024-117B","EPOCH":"2025-09-26T18:27:14.322528","MEAN_MOTION":15.30185696,"ECCENTRICITY":5.843e-5,"INCLINATION":53.1608,"RA_OF_ASC_NODE":78.2218,"ARG_OF_PERICENTER":100.8593,"MEAN_ANOMALY":259.2473,"EPHEMERIS_TYPE":0,"CLASSIFICATION_TYPE":"U","NORAD_CAT_ID":60092,"ELEMENT_SET_NO":999,"REV_AT_EPOCH":7179,"BSTAR":0.00014732775,"MEAN_MOTION_DOT":4.005e-5,"MEAN_MOTION_DDOT":0},{"OBJECT_NAME":"STARLINK-31239","OBJECT_ID":"2024-117C","EPOCH":"2025-09-26T18:09:10.112256","MEAN_MOTION":15.30186378,"ECCENTRICITY":8.328e-5,"INCLINATION":53.1603,"RA_OF_ASC_NODE":78.8563,"ARG_OF_PERICENTER":82.4004,"MEAN_ANOMALY":277.7091,"EPHEMERIS_TYPE":0,"CLASSIFICATION_TYPE":"U","NORAD_CAT_ID":60093,"ELEMENT_SET_NO":999,"REV_AT_EPOCH":7178,"BSTAR":4.5129691e-5,"MEAN_MOTION_DOT":9.77e-6,"MEAN_MOTION_DDOT":0},{"OBJECT_NAME":"STARLINK-32007","OBJECT_ID":"2024-117D","EPOCH":"2025-09-26T20:57:31.055904","MEAN_MOTION":15.30192866,"ECCENTRICITY":0.00012287,"INCLINATION":53.1605,"RA_OF_ASC_NODE":78.1637,"ARG_OF_PERICENTER":75.8507,"MEAN_ANOMALY":284.2631,"EPHEMERIS_TYPE":0,"CLASSIFICATION_TYPE":"U","NORAD_CAT_ID":60094,"ELEMENT_SET_NO":999,"REV_AT_EPOCH":7180,"BSTAR":-3.4034054e-5,"MEAN_MOTION_DOT":-1.367e-5,"MEAN_MOTION_DDOT":0},{"OBJECT_NAME":"STARLINK-32028","OBJECT_ID":"2024-117E","EPOCH":"2025-09-26T17:35:44.198880","MEAN_MOTION":15.30187083,"ECCENTRICITY":0.00012022,"INCLINATION":53.1608,"RA_OF_ASC_NODE":78.7122,"ARG_OF_PERICENTER":93.8084,"MEAN_ANOMALY":266.3054,"EPHEMERIS_TYPE":0,"CLASSIFICATION_TYPE":"U","NORAD_CAT_ID":60095,"ELEMENT_SET_NO":999,"REV_AT_EPOCH":7178,"BSTAR":-3.120116e-6,"MEAN_MOTION_DOT":-4.51e-6,"MEAN_MOTION_DDOT":0},{"OBJECT_NAME":"STARLINK-32016","OBJECT_ID":"2024-117F","EPOCH":"2025-09-26T18:03:05.073984","MEAN_MOTION":15.30198347,"ECCENTRICITY":9.911e-5,"INCLINATION":53.1609,"RA_OF_ASC_NODE":78.8311,"ARG_OF_PERICENTER":82.8856,"MEAN_ANOMALY":277.2257,"EPHEMERIS_TYPE":0,"CLASSIFICATION_TYPE":"U","NORAD_CAT_ID":60096,"ELEMENT_SET_NO":999,"REV_AT_EPOCH":7178,"BSTAR":2.1613599e-5,"MEAN_MOTION_DOT":2.81e-6,"MEAN_MOTION_DDOT":0},{"OBJECT_NAME":"STARLINK-32003","OBJECT_ID":"2024-117G","EPOCH":"2025-09-26T17:16:00.647616","MEAN_MOTION":15.30157169,"ECCENTRICITY":8.053e-5,"INCLINATION":53.1604,"RA_OF_ASC_NODE":78.6259,"ARG_OF_PERICENTER":100.1351,"MEAN_ANOMALY":259.9741,"EPHEMERIS_TYPE":0,"CLASSIFICATION_TYPE":"U","NORAD_CAT_ID":60097,"ELEMENT_SET_NO":999,"REV_AT_EPOCH":7178,"BSTAR":-7.7531606e-5,"MEAN_MOTION_DOT":-2.651e-5,"MEAN_MOTION_DDOT":0},{"OBJECT_NAME":"STARLINK-32026","OBJECT_ID":"2024-117H","EPOCH":"2025-09-26T20:37:44.752800","MEAN_MOTION":15.30199092,"ECCENTRICITY":0.00015429,"INCLINATION":53.1617,"RA_OF_ASC_NODE":78.0775,"ARG_OF_PERICENTER":64.0329,"MEAN_ANOMALY":296.0831,"EPHEMERIS_TYPE":0,"CLASSIFICATION_TYPE":"U","NORAD_CAT_ID":60098,"ELEMENT_SET_NO":999,"REV_AT_EPOCH":7180,"BSTAR":2.7038947e-5,"MEAN_MOTION_DOT":4.42e-6,"MEAN_MOTION_DDOT":0}]
